{"type": "FeatureCollection", "features": [ {"type": "Feature", "properties": {"norad_id": 40938, "name": "BEIDOU-3S IGSO-2S (C56)", "group": "gnss", "lat": 9.92922889409254, "lon": -90.55988124090136, "alt_km": 36042.50655463163, "timestamp": "2025-12-27T05:29:39.445539+00:00", "meta": {"OBJECT_NAME": "BEIDOU-3S IGSO-2S (C56)", "OBJECT_ID": "2015-053A", "EPOCH": "2025-12-26T16:11:41.602848", "MEAN_MOTION": 1.00266904, "ECCENTRICITY": 0.0060693, "INCLINATION": 49.4889, "RA_OF_ASC_NODE": 260.8421, "ARG_OF_PERICENTER": 188.2714, "MEAN_ANOMALY": 344.9526, "EPHEMERIS_TYPE": 0, "CLASSIFICATION_TYPE": "U", "NORAD_CAT_ID": 40938, "ELEMENT_SET_NO": 999, "REV_AT_EPOCH": 3762, "BSTAR": 0, "MEAN_MOTION_DOT": -1.24e-06, "MEAN_MOTION_DDOT": 0}, "tle": {"line1": "1 40938U 15053A   25360.67478707 -.00000124  00000+0  00000+0 0  9996", "line2": "2 40938  49.4889 260.8421 0060693 188.2714 344.9526  1.00266904 37625"}}, "geometry": {"type": "Point", "coordinates": [-90.55988124090136, 9.92922889409254]}}, {"type": "Feature", "properties": {"norad_id": 41019, "name": "GPS BIIF-11 (PRN 10)", "group": "gnss", "lat": -23.445434645223212, "lon": 20.994095176923242, "alt_km": 20239.749594788387, "timestamp": "2025-12-27T05:29:39.445550+00:00", "meta": {"OBJECT_NAME": "GPS BIIF-11 (PRN 10)", "OBJECT_ID": "2015-062A", "EPOCH": "2025-12-26T06:30:53.631648", "MEAN_MOTION": 2.00567029, "ECCENTRICITY": 0.0111129, "INCLINATION": 56.842, "RA_OF_ASC_NODE": 37.479, "ARG_OF_PERICENTER": 230.2895, "MEAN_ANOMALY": 128.7854, "EPHEMERIS_TYPE": 0, "CLASSIFICATION_TYPE": "U", "NORAD_CAT_ID": 41019, "ELEMENT_SET_NO": 999, "REV_AT_EPOCH": 7436, "BSTAR": 0, "MEAN_MOTION_DOT": -4.9e-07, "MEAN_MOTION_DDOT": 0}, "tle": {"line1": "1 41019U 15062A   25360.27145407 -.00000049  00000+0  00000+0 0  9997", "line2": "2 41019  56.8420  37.4790 0111129 230.2895 128.7854  2.00567029 74362"}}, "geometry": {"type": "Point", "coordinates": [20.994095176923242, -23.445434645223212]}}, {"type": "Feature", "properties": {"norad_id": 41028, "name": "GSAT-15 (GAGAN/PRN 139)", "group": "gnss", "lat": -0.02914322011616112, "lon": -88.11281208489254, "alt_km": 35777.40105549319, "timestamp": "2025-12-27T05:29:39.445562+00:00", "meta": {"OBJECT_NAME": "GSAT-15 (GAGAN/PRN 139)", "OBJECT_ID": "2015-065A", "EPOCH": "2025-12-26T22:02:21.803424", "MEAN_MOTION": 1.0027029, "ECCENTRICITY": 0.0002426, "INCLINATION": 0.0167, "RA_OF_ASC_NODE": 328.0413, "ARG_OF_PERICENTER": 276.6777, "MEAN_ANOMALY": 275.035, "EPHEMERIS_TYPE": 0, "CLASSIFICATION_TYPE": "U", "NORAD_CAT_ID": 41028, "ELEMENT_SET_NO": 999, "REV_AT_EPOCH": 3707, "BSTAR": 0, "MEAN_MOTION_DOT": -2.35e-06, "MEAN_MOTION_DDOT": 0}, "tle": {"line1": "1 41028U 15065A   25360.91830791 -.00000235  00000+0  00000+0 0  9995", "line2": "2 41028   0.0167 328.0413 0002426 276.6777 275.0350  1.00270290 37078"}}, "geometry": {"type": "Point", "coordinates": [-88.11281208489254, -0.02914322011616112]}}, {"type": "Feature", "properties": {"norad_id": 41174, "name": "GSAT0209 (GALILEO 12)", "group": "gnss", "lat": 29.32182086511172, "lon": 128.47631200606483, "alt_km": 23214.11517900534, "timestamp": "2025-12-27T05:29:39.445576+00:00", "meta": {"OBJECT_NAME": "GSAT0209 (GALILEO 12)", "OBJECT_ID": "2015-079A", "EPOCH": "2025-12-21T21:22:17.332896", "MEAN_MOTION": 1.70474556, "ECCENTRICITY": 0.00025231, "INCLINATION": 55.7178, "RA_OF_ASC_NODE": 106.13, "ARG_OF_PERICENTER": 342.7574, "MEAN_ANOMALY": 17.2091, "EPHEMERIS_TYPE": 0, "CLASSIFICATION_TYPE": "U", "NORAD_CAT_ID": 41174, "ELEMENT_SET_NO": 999, "REV_AT_EPOCH": 6175, "BSTAR": 0, "MEAN_MOTION_DOT": 5e-08, "MEAN_MOTION_DDOT": 0}, "tle": {"line1": "1 41174U 15079A   25355.89047839  .00000005  00000+0  00000+0 0  9990", "line2": "2 41174  55.7178 106.1300 0002523 342.7574  17.2091  1.70474556 61755"}}, "geometry": {"type": "Point", "coordinates": [128.47631200606483, 29.32182086511172]}}, {"type": "Feature", "properties": {"norad_id": 41175, "name": "GSAT0208 (GALILEO 11)", "group": "gnss", "lat": -54.75732169610708, "lon": 0.585563926832587, "alt_km": 23226.954828713868, "timestamp": "2025-12-27T05:29:39.445587+00:00", "meta": {"OBJECT_NAME": "GSAT0208 (GALILEO 11)", "OBJECT_ID": "2015-079B", "EPOCH": "2025-12-26T19:16:48.817056", "MEAN_MOTION": 1.70474041, "ECCENTRICITY": 0.00020772, "INCLINATION": 55.719, "RA_OF_ASC_NODE": 105.9921, "ARG_OF_PERICENTER": 340.7165, "MEAN_ANOMALY": 19.2705, "EPHEMERIS_TYPE": 0, "CLASSIFICATION_TYPE": "U", "NORAD_CAT_ID": 41175, "ELEMENT_SET_NO": 999, "REV_AT_EPOCH": 6225, "BSTAR": 0, "MEAN_MOTION_DOT": 1.7e-07, "MEAN_MOTION_DDOT": 0}, "tle": {"line1": "1 41175U 15079B   25360.80334279  .00000017  00000+0  00000+0 0  9998", "line2": "2 41175  55.7190 105.9921 0002077 340.7165  19.2705  1.70474041 62253"}}, "geometry": {"type": "Point", "coordinates": [0.585563926832587, -54.75732169610708]}}, {"type": "Feature", "properties": {"norad_id": 41241, "name": "IRNSS-1E", "group": "gnss", "lat": -23.751390939948685, "lon": -74.82698669062687, "alt_km": 35719.41967042599, "timestamp": "2025-12-27T05:29:39.445599+00:00", "meta": {"OBJECT_NAME": "IRNSS-1E", "OBJECT_ID": "2016-003A", "EPOCH": "2025-12-24T15:55:26.719680", "MEAN_MOTION": 1.0026854, "ECCENTRICITY": 0.00215442, "INCLINATION": 32.8513, "RA_OF_ASC_NODE": 62.279, "ARG_OF_PERICENTER": 188.9872, "MEAN_ANOMALY": 192.7105, "EPHEMERIS_TYPE": 0, "CLASSIFICATION_TYPE": "U", "NORAD_CAT_ID": 41241, "ELEMENT_SET_NO": 999, "REV_AT_EPOCH": 3633, "BSTAR": 0, "MEAN_MOTION_DOT": -2.92e-06, "MEAN_MOTION_DDOT": 0}, "tle": {"line1": "1 41241U 16003A   25358.66350370 -.00000292  00000+0  00000+0 0  9997", "line2": "2 41241  32.8513  62.2790 0021544 188.9872 192.7105  1.00268540 36337"}}, "geometry": {"type": "Point", "coordinates": [-74.82698669062687, -23.751390939948685]}}, {"type": "Feature", "properties": {"norad_id": 41328, "name": "GPS BIIF-12 (PRN 32)", "group": "gnss", "lat": -55.41794128797843, "lon": 8.127839272944234, "alt_km": 19968.669184527833, "timestamp": "2025-12-27T05:29:39.445610+00:00", "meta": {"OBJECT_NAME": "GPS BIIF-12 (PRN 32)", "OBJECT_ID": "2016-007A", "EPOCH": "2025-12-25T20:32:16.174464", "MEAN_MOTION": 2.00559967, "ECCENTRICITY": 0.00928247, "INCLINATION": 55.4133, "RA_OF_ASC_NODE": 96.3364, "ARG_OF_PERICENTER": 243.9276, "MEAN_ANOMALY": 115.1304, "EPHEMERIS_TYPE": 0, "CLASSIFICATION_TYPE": "U", "NORAD_CAT_ID": 41328, "ELEMENT_SET_NO": 999, "REV_AT_EPOCH": 7236, "BSTAR": 0, "MEAN_MOTION_DOT": 1.1e-07, "MEAN_MOTION_DDOT": 0}, "tle": {"line1": "1 41328U 16007A   25359.85574276  .00000011  00000+0  00000+0 0  9990", "line2": "2 41328  55.4133  96.3364 0092824 243.9276 115.1304  2.00559967 72366"}}, "geometry": {"type": "Point", "coordinates": [8.127839272944234, -55.41794128797843]}}, {"type": "Feature", "properties": {"norad_id": 41330, "name": "COSMOS 2514 (751)", "group": "gnss", "lat": 48.50923602851603, "lon": 107.28081841519375, "alt_km": 19127.194785616655, "timestamp": "2025-12-27T05:29:39.445625+00:00", "meta": {"OBJECT_NAME": "COSMOS 2514 (751)", "OBJECT_ID": "2016-008A", "EPOCH": "2025-12-26T03:04:28.076736", "MEAN_MOTION": 2.13102515, "ECCENTRICITY": 0.0011522, "INCLINATION": 65.126, "RA_OF_ASC_NODE": 318.9457, "ARG_OF_PERICENTER": 220.0095, "MEAN_ANOMALY": 139.91, "EPHEMERIS_TYPE": 0, "CLASSIFICATION_TYPE": "U", "NORAD_CAT_ID": 41330, "ELEMENT_SET_NO": 999, "REV_AT_EPOCH": 7693, "BSTAR": 0, "MEAN_MOTION_DOT": -3.4e-07, "MEAN_MOTION_DDOT": 0}, "tle": {"line1": "1 41330U 16008A   25360.12810274 -.00000034  00000+0  00000+0 0  9993", "line2": "2 41330  65.1260 318.9457 0011522 220.0095 139.9100  2.13102515 76937"}}, "geometry": {"type": "Point", "coordinates": [107.28081841519375, 48.50923602851603]}}, {"type": "Feature", "properties": {"norad_id": 41384, "name": "IRNSS-1F", "group": "gnss", "lat": 4.622485036637827, "lon": -149.2155286179009, "alt_km": 35754.29055945485, "timestamp": "2025-12-27T05:29:39.445637+00:00", "meta": {"OBJECT_NAME": "IRNSS-1F", "OBJECT_ID": "2016-015A", "EPOCH": "2025-12-24T23:31:33.658752", "MEAN_MOTION": 1.00278532, "ECCENTRICITY": 0.00226614, "INCLINATION": 4.9118, "RA_OF_ASC_NODE": 100.9953, "ARG_OF_PERICENTER": 182.2729, "MEAN_ANOMALY": 195.8977, "EPHEMERIS_TYPE": 0, "CLASSIFICATION_TYPE": "U", "NORAD_CAT_ID": 41384, "ELEMENT_SET_NO": 999, "REV_AT_EPOCH": 3592, "BSTAR": 0, "MEAN_MOTION_DOT": 1.78e-06, "MEAN_MOTION_DDOT": 0}, "tle": {"line1": "1 41384U 16015A   25358.98025068  .00000178  00000+0  00000+0 0  9998", "line2": "2 41384   4.9118 100.9953 0022661 182.2729 195.8977  1.00278532 35923"}}, "geometry": {"type": "Point", "coordinates": [-149.2155286179009, 4.622485036637827]}}, {"type": "Feature", "properties": {"norad_id": 41434, "name": "BEIDOU-2 IGSO-6 (C13)", "group": "gnss", "lat": -43.28129007973946, "lon": -107.2509444239903, "alt_km": 35529.40456390857, "timestamp": "2025-12-27T05:29:39.445651+00:00", "meta": {"OBJECT_NAME": "BEIDOU-2 IGSO-6 (C13)", "OBJECT_ID": "2016-021A", "EPOCH": "2025-12-25T02:21:14.682240", "MEAN_MOTION": 1.00290736, "ECCENTRICITY": 0.00608236, "INCLINATION": 59.9818, "RA_OF_ASC_NODE": 39.7747, "ARG_OF_PERICENTER": 230.5129, "MEAN_ANOMALY": 312.5474, "EPHEMERIS_TYPE": 0, "CLASSIFICATION_TYPE": "U", "NORAD_CAT_ID": 41434, "ELEMENT_SET_NO": 999, "REV_AT_EPOCH": 3573, "BSTAR": 0, "MEAN_MOTION_DOT": -1.35e-06, "MEAN_MOTION_DDOT": 0}, "tle": {"line1": "1 41434U 16021A   25359.09808660 -.00000135  00000+0  00000+0 0  9995", "line2": "2 41434  59.9818  39.7747 0060823 230.5129 312.5474  1.00290736 35738"}}, "geometry": {"type": "Point", "coordinates": [-107.2509444239903, -43.28129007973946]}}]}